[{"OBJECT_NAME":"TIANQI-34","OBJECT_ID":"2024-245B","EPOCH":"2026-03-09T23:15:23.393664","MEAN_MOTION":13.99150142,"ECCENTRICITY":0.00063477,"INCLINATION":44.9809,"RA_OF_ASC_NODE":43.206,"ARG_OF_PERICENTER":277.4592,"MEAN_ANOMALY":82.5519,"EPHEMERIS_TYPE":0,"CLASSIFICATION_TYPE":"U","NORAD_CAT_ID":62366,"ELEMENT_SET_NO":999,"REV_AT_EPOCH":6243,"BSTAR":0.0001456887,"MEAN_MOTION_DOT":8.4e-7,"MEAN_MOTION_DDOT":0},{"OBJECT_NAME":"DELTA 1 DEB","OBJECT_ID":"1978-026EL","EPOCH":"2026-03-09T20:59:57.338880","MEAN_MOTION":14.0449738,"ECCENTRICITY":0.0050339,"INCLINATION":98.9182,"RA_OF_ASC_NODE":175.7332,"ARG_OF_PERICENTER":162.2518,"MEAN_ANOMALY":326.0875,"EPHEMERIS_TYPE":0,"CLASSIFICATION_TYPE":"U","NORAD_CAT_ID":12292,"ELEMENT_SET_NO":999,"REV_AT_EPOCH":27629,"BSTAR":0.00066336755,"MEAN_MOTION_DOT":1.027e-5,"MEAN_MOTION_DDOT":0}]
